[{"OBJECT_NAME":"ICEYE-X33","OBJECT_ID":"2024-149CJ","EPOCH":"2026-03-09T17:04:13.303776","MEAN_MOTION":15.0113344,"ECCENTRICITY":0.00060627,"INCLINATION":97.7033,"RA_OF_ASC_NODE":148.5516,"ARG_OF_PERICENTER":122.8099,"MEAN_ANOMALY":237.371,"EPHEMERIS_TYPE":0,"CLASSIFICATION_TYPE":"U","NORAD_CAT_ID":60548,"ELEMENT_SET_NO":999,"REV_AT_EPOCH":8528,"BSTAR":0.00045891369,"MEAN_MOTION_DOT":5.822e-5,"MEAN_MOTION_DDOT":0},{"OBJECT_NAME":"CZ-6A DEB","OBJECT_ID":"2022-151RK","EPOCH":"2026-03-09T04:16:52.342176","MEAN_MOTION":15.00981633,"ECCENTRICITY":0.00383954,"INCLINATION":98.6273,"RA_OF_ASC_NODE":143.4522,"ARG_OF_PERICENTER":188.2396,"MEAN_ANOMALY":171.8199,"EPHEMERIS_TYPE":0,"CLASSIFICATION_TYPE":"U","NORAD_CAT_ID":54922,"ELEMENT_SET_NO":999,"REV_AT_EPOCH":17321,"BSTAR":0.0056092635,"MEAN_MOTION_DOT":0.00073321,"MEAN_MOTION_DDOT":0}]
